STARLINK-37061          
1 68185U 26050U   26090.17004296  .00171718  00000+0  85563-3 0  9991
2 68185  53.1592 174.0324 0001282  42.7589 317.3533 15.80891319  3872
STARLINK-37079          
1 68186U 26050V   26090.16929082  .00136852  00000+0  68506-3 0  9998
2 68186  53.1593 174.0273 0000927  51.2504 308.8602 15.80901686  3875
STARLINK-37006          
1 68187U 26050W   26090.23176286  .00251445  00000+0  12372-2 0  9992
2 68187  53.1595 173.7063 0000888  66.5506 293.5610 15.80935691  3881
STARLINK-36340          
1 68188U 26050X   26090.23101343  .00171848  00000+0  85506-3 0  9993
2 68188  53.1595 173.7004 0000996  71.6178 288.4953 15.80921956  3780
STARLINK-36305          
1 68189U 26050Y   26090.23026282  .00167800  00000+0  83527-3 0  9996
2 68189  53.1595 173.6960 0001085  66.8955 293.2182 15.80925127  3782
STARLINK-37071          
1 68190U 26050Z   26090.16554196  .00180752  00000+0  89885-3 0  9994
2 68190  53.1596 174.0027 0000879  74.9871 285.1249 15.80907261  3874
STARLINK-37091          
1 68191U 26050AA  26090.22801200  .00152391  00000+0  76037-3 0  9996
2 68191  53.1595 173.6801 0001308  69.2413 290.8749 15.80921544  3885
STARLINK-37098          
1 68192U 26050AB  26090.16404246  .00211170  00000+0  10454-2 0  9990
2 68192  53.1594 173.9918 0000975  37.6765 322.4326 15.80916649  3877
STARLINK-37090          
1 68193U 26050AC  26090.16254182  .00153564  00000+0  76708-3 0  9990
2 68193  53.1598 173.9812 0001846  12.6194 347.4874 15.80892936  3879
STARLINK-37093          
1 68194U 26050AD  26090.16629047  .00123542  00000+0  62020-3 0  9992
2 68194  53.1597 174.0068 0001644  44.9250 315.1905 15.80884868  3873
STARLINK-37058          
1 68195U 26050AE  26090.10006647  .00132339  00000+0  66212-3 0  9993
2 68195  53.1596 174.3033 0000294  81.4189 278.6867 15.80928066  2301
YAOGAN-50 02            
1 68196U 26051A   26090.16779926  .00000266  00000+0  71949-4 0  9995
2 68196 141.9866 310.8164 0000810 268.9733  91.0894 13.83266331  2185
