CCSDS_OMM_VERS = 2.0
CREATION_DATE  = 
ORIGINATOR     = 

OBJECT_NAME    = STARLINK-37061
OBJECT_ID      = 2026-050U
CENTER_NAME    = EARTH
REF_FRAME      = TEME
TIME_SYSTEM    = UTC
MEAN_ELEMENT_THEORY = SGP/SGP4

EPOCH          = 2026-03-31T04:04:51.711744
MEAN_MOTION    = 15.80891319
ECCENTRICITY   = .0001282
INCLINATION    = 53.1592
RA_OF_ASC_NODE = 174.0324
ARG_OF_PERICENTER = 42.7589
MEAN_ANOMALY   = 317.3533

EPHEMERIS_TYPE = 0
CLASSIFICATION_TYPE = U
NORAD_CAT_ID   = 68185
ELEMENT_SET_NO = 999
REV_AT_EPOCH   = 387
BSTAR          = .85563E-3
MEAN_MOTION_DOT = .171718E-2
MEAN_MOTION_DDOT = 0

CCSDS_OMM_VERS = 2.0
CREATION_DATE  = 
ORIGINATOR     = 

OBJECT_NAME    = STARLINK-37079
OBJECT_ID      = 2026-050V
CENTER_NAME    = EARTH
REF_FRAME      = TEME
TIME_SYSTEM    = UTC
MEAN_ELEMENT_THEORY = SGP/SGP4

EPOCH          = 2026-03-31T04:03:46.726848
MEAN_MOTION    = 15.80901686
ECCENTRICITY   = .0000927
INCLINATION    = 53.1593
RA_OF_ASC_NODE = 174.0273
ARG_OF_PERICENTER = 51.2504
MEAN_ANOMALY   = 308.8602

EPHEMERIS_TYPE = 0
CLASSIFICATION_TYPE = U
NORAD_CAT_ID   = 68186
ELEMENT_SET_NO = 999
REV_AT_EPOCH   = 387
BSTAR          = .68506E-3
MEAN_MOTION_DOT = .136852E-2
MEAN_MOTION_DDOT = 0

CCSDS_OMM_VERS = 2.0
CREATION_DATE  = 
ORIGINATOR     = 

OBJECT_NAME    = STARLINK-37006
OBJECT_ID      = 2026-050W
CENTER_NAME    = EARTH
REF_FRAME      = TEME
TIME_SYSTEM    = UTC
MEAN_ELEMENT_THEORY = SGP/SGP4

EPOCH          = 2026-03-31T05:33:44.311104
MEAN_MOTION    = 15.80935691
ECCENTRICITY   = .0000888
INCLINATION    = 53.1595
RA_OF_ASC_NODE = 173.7063
ARG_OF_PERICENTER = 66.5506
MEAN_ANOMALY   = 293.5610

EPHEMERIS_TYPE = 0
CLASSIFICATION_TYPE = U
NORAD_CAT_ID   = 68187
ELEMENT_SET_NO = 999
REV_AT_EPOCH   = 388
BSTAR          = .12372E-2
MEAN_MOTION_DOT = .251445E-2
MEAN_MOTION_DDOT = 0

CCSDS_OMM_VERS = 2.0
CREATION_DATE  = 
ORIGINATOR     = 

OBJECT_NAME    = STARLINK-36340
OBJECT_ID      = 2026-050X
CENTER_NAME    = EARTH
REF_FRAME      = TEME
TIME_SYSTEM    = UTC
MEAN_ELEMENT_THEORY = SGP/SGP4

EPOCH          = 2026-03-31T05:32:39.560352
MEAN_MOTION    = 15.80921956
ECCENTRICITY   = .0000996
INCLINATION    = 53.1595
RA_OF_ASC_NODE = 173.7004
ARG_OF_PERICENTER = 71.6178
MEAN_ANOMALY   = 288.4953

EPHEMERIS_TYPE = 0
CLASSIFICATION_TYPE = U
NORAD_CAT_ID   = 68188
ELEMENT_SET_NO = 999
REV_AT_EPOCH   = 378
BSTAR          = .85506E-3
MEAN_MOTION_DOT = .171848E-2
MEAN_MOTION_DDOT = 0

CCSDS_OMM_VERS = 2.0
CREATION_DATE  = 
ORIGINATOR     = 

OBJECT_NAME    = STARLINK-36305
OBJECT_ID      = 2026-050Y
CENTER_NAME    = EARTH
REF_FRAME      = TEME
TIME_SYSTEM    = UTC
MEAN_ELEMENT_THEORY = SGP/SGP4

EPOCH          = 2026-03-31T05:31:34.707648
MEAN_MOTION    = 15.80925127
ECCENTRICITY   = .0001085
INCLINATION    = 53.1595
RA_OF_ASC_NODE = 173.6960
ARG_OF_PERICENTER = 66.8955
MEAN_ANOMALY   = 293.2182

EPHEMERIS_TYPE = 0
CLASSIFICATION_TYPE = U
NORAD_CAT_ID   = 68189
ELEMENT_SET_NO = 999
REV_AT_EPOCH   = 378
BSTAR          = .83527E-3
MEAN_MOTION_DOT = .1678E-2
MEAN_MOTION_DDOT = 0

CCSDS_OMM_VERS = 2.0
CREATION_DATE  = 
ORIGINATOR     = 

OBJECT_NAME    = STARLINK-37071
OBJECT_ID      = 2026-050Z
CENTER_NAME    = EARTH
REF_FRAME      = TEME
TIME_SYSTEM    = UTC
MEAN_ELEMENT_THEORY = SGP/SGP4

EPOCH          = 2026-03-31T03:58:22.825344
MEAN_MOTION    = 15.80907261
ECCENTRICITY   = .0000879
INCLINATION    = 53.1596
RA_OF_ASC_NODE = 174.0027
ARG_OF_PERICENTER = 74.9871
MEAN_ANOMALY   = 285.1249

EPHEMERIS_TYPE = 0
CLASSIFICATION_TYPE = U
NORAD_CAT_ID   = 68190
ELEMENT_SET_NO = 999
REV_AT_EPOCH   = 387
BSTAR          = .89885E-3
MEAN_MOTION_DOT = .180752E-2
MEAN_MOTION_DDOT = 0

CCSDS_OMM_VERS = 2.0
CREATION_DATE  = 
ORIGINATOR     = 

OBJECT_NAME    = STARLINK-37091
OBJECT_ID      = 2026-050AA
CENTER_NAME    = EARTH
REF_FRAME      = TEME
TIME_SYSTEM    = UTC
MEAN_ELEMENT_THEORY = SGP/SGP4

EPOCH          = 2026-03-31T05:28:20.236800
MEAN_MOTION    = 15.80921544
ECCENTRICITY   = .0001308
INCLINATION    = 53.1595
RA_OF_ASC_NODE = 173.6801
ARG_OF_PERICENTER = 69.2413
MEAN_ANOMALY   = 290.8749

EPHEMERIS_TYPE = 0
CLASSIFICATION_TYPE = U
NORAD_CAT_ID   = 68191
ELEMENT_SET_NO = 999
REV_AT_EPOCH   = 388
BSTAR          = .76037E-3
MEAN_MOTION_DOT = .152391E-2
MEAN_MOTION_DDOT = 0

CCSDS_OMM_VERS = 2.0
CREATION_DATE  = 
ORIGINATOR     = 

OBJECT_NAME    = STARLINK-37098
OBJECT_ID      = 2026-050AB
CENTER_NAME    = EARTH
REF_FRAME      = TEME
TIME_SYSTEM    = UTC
MEAN_ELEMENT_THEORY = SGP/SGP4

EPOCH          = 2026-03-31T03:56:13.268544
MEAN_MOTION    = 15.80916649
ECCENTRICITY   = .0000975
INCLINATION    = 53.1594
RA_OF_ASC_NODE = 173.9918
ARG_OF_PERICENTER = 37.6765
MEAN_ANOMALY   = 322.4326

EPHEMERIS_TYPE = 0
CLASSIFICATION_TYPE = U
NORAD_CAT_ID   = 68192
ELEMENT_SET_NO = 999
REV_AT_EPOCH   = 387
BSTAR          = .10454E-2
MEAN_MOTION_DOT = .21117E-2
MEAN_MOTION_DDOT = 0

CCSDS_OMM_VERS = 2.0
CREATION_DATE  = 
ORIGINATOR     = 

OBJECT_NAME    = STARLINK-37090
OBJECT_ID      = 2026-050AC
CENTER_NAME    = EARTH
REF_FRAME      = TEME
TIME_SYSTEM    = UTC
MEAN_ELEMENT_THEORY = SGP/SGP4

EPOCH          = 2026-03-31T03:54:03.613248
MEAN_MOTION    = 15.80892936
ECCENTRICITY   = .0001846
INCLINATION    = 53.1598
RA_OF_ASC_NODE = 173.9812
ARG_OF_PERICENTER = 12.6194
MEAN_ANOMALY   = 347.4874

EPHEMERIS_TYPE = 0
CLASSIFICATION_TYPE = U
NORAD_CAT_ID   = 68193
ELEMENT_SET_NO = 999
REV_AT_EPOCH   = 387
BSTAR          = .76708E-3
MEAN_MOTION_DOT = .153564E-2
MEAN_MOTION_DDOT = 0

CCSDS_OMM_VERS = 2.0
CREATION_DATE  = 
ORIGINATOR     = 

OBJECT_NAME    = STARLINK-37093
OBJECT_ID      = 2026-050AD
CENTER_NAME    = EARTH
REF_FRAME      = TEME
TIME_SYSTEM    = UTC
MEAN_ELEMENT_THEORY = SGP/SGP4

EPOCH          = 2026-03-31T03:59:27.496608
MEAN_MOTION    = 15.80884868
ECCENTRICITY   = .0001644
INCLINATION    = 53.1597
RA_OF_ASC_NODE = 174.0068
ARG_OF_PERICENTER = 44.9250
MEAN_ANOMALY   = 315.1905

EPHEMERIS_TYPE = 0
CLASSIFICATION_TYPE = U
NORAD_CAT_ID   = 68194
ELEMENT_SET_NO = 999
REV_AT_EPOCH   = 387
BSTAR          = .6202E-3
MEAN_MOTION_DOT = .123542E-2
MEAN_MOTION_DDOT = 0

CCSDS_OMM_VERS = 2.0
CREATION_DATE  = 
ORIGINATOR     = 

OBJECT_NAME    = STARLINK-37058
OBJECT_ID      = 2026-050AE
CENTER_NAME    = EARTH
REF_FRAME      = TEME
TIME_SYSTEM    = UTC
MEAN_ELEMENT_THEORY = SGP/SGP4

EPOCH          = 2026-03-31T02:24:05.743008
MEAN_MOTION    = 15.80928066
ECCENTRICITY   = .0000294
INCLINATION    = 53.1596
RA_OF_ASC_NODE = 174.3033
ARG_OF_PERICENTER = 81.4189
MEAN_ANOMALY   = 278.6867

EPHEMERIS_TYPE = 0
CLASSIFICATION_TYPE = U
NORAD_CAT_ID   = 68195
ELEMENT_SET_NO = 999
REV_AT_EPOCH   = 230
BSTAR          = .66212E-3
MEAN_MOTION_DOT = .132339E-2
MEAN_MOTION_DDOT = 0

CCSDS_OMM_VERS = 2.0
CREATION_DATE  = 
ORIGINATOR     = 

OBJECT_NAME    = YAOGAN-50 02
OBJECT_ID      = 2026-051A
CENTER_NAME    = EARTH
REF_FRAME      = TEME
TIME_SYSTEM    = UTC
MEAN_ELEMENT_THEORY = SGP/SGP4

EPOCH          = 2026-03-31T04:01:37.856064
MEAN_MOTION    = 13.83266331
ECCENTRICITY   = .000081
INCLINATION    = 141.9866
RA_OF_ASC_NODE = 310.8164
ARG_OF_PERICENTER = 268.9733
MEAN_ANOMALY   = 91.0894

EPHEMERIS_TYPE = 0
CLASSIFICATION_TYPE = U
NORAD_CAT_ID   = 68196
ELEMENT_SET_NO = 999
REV_AT_EPOCH   = 218
BSTAR          = .71949E-4
MEAN_MOTION_DOT = .266E-5
MEAN_MOTION_DDOT = 0

